1 60989U 24157A   25324.50132902  .00000168  00000-0  80754-4 0  9992
2 60989  98.5629  37.3147 0001063 102.3056 257.8246 14.30817692 63144
